NORAD_CAT_ID,OBJECT_NAME,OBJECT_TYPE,EPOCH,MEAN_MOTION,ECCENTRICITY,INCLINATION,RA_OF_ASC_NODE,ARG_OF_PERICENTER,MEAN_ANOMALY,BSTAR,MEAN_MOTION_DOT,MEAN_MOTION_DDOT,TLE_LINE0,TLE_LINE1,TLE_LINE2,SEMIMAJOR_AXIS,PERIOD,APOGEE,PERIGEE,DECAYED
55658.0,STARLINK-5307,PAYLOAD,2023-03-30 05:58:17,15.69933679,0.0003225,70.0013,36.1252,264.1967,95.8861,5.7668e-05,6.73e-05,0.0,0 STARLINK-5307,1 55658U 23021AG  23089.24881186  .00006730  00000-0  57668-4 0  9999,2 55658  70.0013  36.1252 0003225 264.1967  95.8861 15.69933679  6896,6737.224,91.724,361.261,356.916,0.0
55658.0,STARLINK-5307,PAYLOAD,2023-03-31 00:19:19,15.69929041,0.0003276,70.0021,33.9758,273.7905,86.2916,4.2431e-05,4.893e-05,0.0,0 STARLINK-5307,1 55658U 23021AG  23090.01341444  .00004893  00000-0  42431-4 0  9994,2 55658  70.0021  33.9758 0003276 273.7905  86.2916 15.69929041  7013,6737.237,91.724,361.309,356.895,0.0
55658.0,STARLINK-5307,PAYLOAD,2023-03-31 07:58:04,15.69918479,0.0003025,70.0025,33.0814,280.6978,79.3877,-1.2159e-06,-3.59e-06,0.0,0 STARLINK-5307,1 55658U 23021AG  23090.33200124 -.00000359  00000-0 -12159-5 0  9998,2 55658  70.0025  33.0814 0003025 280.6978  79.3877 15.69918479  7067,6737.267,91.725,361.17,357.094,0.0
55658.0,STARLINK-5307,PAYLOAD,2023-04-01 08:26:06,15.69923084,0.0003367,70.0013,30.2131,276.0147,84.0665,3.3493e-05,3.816e-05,0.0,0 STARLINK-5307,1 55658U 23021AG  23091.35146949  .00003816  00000-0  33493-4 0  9997,2 55658  70.0013  30.2131 0003367 276.0147  84.0665 15.69923084  7225,6737.254,91.724,361.387,356.851,0.0
55658.0,STARLINK-5307,PAYLOAD,2023-04-02 07:22:23,15.69926487,0.0003339,70.0009,27.5255,266.9697,93.1117,2.3829e-05,2.654e-05,0.0,0 STARLINK-5307,1 55658U 23021AG  23092.30721811  .00002654  00000-0  23829-4 0  9991,2 55658  70.0009  27.5255 0003339 266.9697  93.1117 15.69926487  7686,6737.244,91.724,361.359,356.86,0.0
55658.0,STARLINK-5307,PAYLOAD,2023-04-03 04:46:55,15.69922224,0.0003041,70.0016,25.0203,263.5015,96.5834,7.3557e-07,-1.24e-06,0.0,0 STARLINK-5307,1 55658U 23021AG  23093.19925728 -.00000124  00000-0  73557-6 0  9998,2 55658  70.0016  25.0203 0003041 263.5015  96.5834 15.69922224  7517,6737.257,91.724,361.17,357.073,0.0
55658.0,STARLINK-5307,PAYLOAD,2023-04-03 21:36:11,15.69930036,0.000318,70.0019,23.0495,263.9982,96.0851,3.4427e-05,3.93e-05,0.0,0 STARLINK-5307,1 55658U 23021AG  23093.90013705  .00003930  00000-0  34427-4 0  9998,2 55658  70.0019  23.0495 0003180 263.9982  96.0851 15.69930036  7932,6737.234,91.724,361.242,356.957,0.0
55658.0,STARLINK-5307,PAYLOAD,2023-04-04 05:14:57,15.69939188,0.0003169,70.0032,22.1556,255.3147,104.7697,5.668e-05,6.612e-05,0.0,0 STARLINK-5307,1 55658U 23021AG  23094.21871672  .00006612  00000-0  56680-4 0  9993,2 55658  70.0032  22.1556 0003169 255.3147 104.7697 15.69939188  7673,6737.208,91.723,361.208,356.938,0.0
55658.0,STARLINK-5307,PAYLOAD,2023-04-04 06:46:43,15.69917231,0.0002637,70.0013,21.9748,273.3079,86.7815,-3.2965e-06,-6.08e-06,0.0,0 STARLINK-5307,1 55658U 23021AG  23094.28244290 -.00000608  00000-0 -32965-5 0  9992,2 55658  70.0013  21.9748 0002637 273.3079  86.7815 15.69917231  7682,6737.271,91.725,360.912,357.359,0.0
55658.0,STARLINK-5307,PAYLOAD,2023-04-04 22:04:14,15.69920476,0.0002611,70.0021,20.1828,269.1751,90.9145,1.0188e-05,1.013e-05,0.0,0 STARLINK-5307,1 55658U 23021AG  23094.91961043  .00001013  00000-0  10188-4 0  9995,2 55658  70.0021  20.1828 0002611 269.1751  90.9145 15.69920476  8097,6737.262,91.724,360.886,357.367,0.0
55658.0,STARLINK-5307,PAYLOAD,2023-04-05 04:11:14,15.69925888,0.0002487,70.0021,19.4672,272.799,87.2921,2.2138e-05,2.45e-05,0.0,0 STARLINK-5307,1 55658U 23021AG  23095.17447632  .00002450  00000-0  22138-4 0  9991,2 55658  70.0021  19.4672 0002487 272.7990  87.2921 15.69925888  8139,6737.246,91.724,360.787,357.435,0.0
55658.0,STARLINK-5307,PAYLOAD,2023-04-05 21:00:30,15.69927744,0.000268,70.0024,17.4951,244.0941,115.9978,2.059e-05,2.264e-05,0.0,0 STARLINK-5307,1 55658U 23021AG  23095.87535764  .00002264  00000-0  20590-4 0  9995,2 55658  70.0024  17.4951 0002680 244.0941 115.9978 15.69927744  8249,6737.241,91.724,360.911,357.3,0.0
55658.0,STARLINK-5307,PAYLOAD,2023-04-06 06:11:01,15.69934862,0.0003298,70.0032,16.4226,260.102,99.9804,3.8305e-05,4.398e-05,0.0,0 STARLINK-5307,1 55658U 23021AG  23096.25765494  .00004398  00000-0  38305-4 0  9996,2 55658  70.0032  16.4226 0003298 260.1020  99.9804 15.69934862  7994,6737.22,91.724,361.307,356.863,0.0
55658.0,STARLINK-5307,PAYLOAD,2023-04-07 05:07:18,15.69926645,0.0003198,70.0018,13.7349,263.3445,96.7387,6.2942e-06,5.44e-06,0.0,0 STARLINK-5307,1 55658U 23021AG  23097.21340759  .00000544  00000-0  62942-5 0  9990,2 55658  70.0018  13.7349 0003198 263.3445  96.7387 15.69926645  8148,6737.244,91.724,361.263,356.954,0.0
55658.0,STARLINK-5307,PAYLOAD,2023-04-08 05:35:21,15.69910258,0.0002936,70.0021,10.8712,253.1645,106.9228,-2.4557e-05,-3.162e-05,0.0,0 STARLINK-5307,1 55658U 23021AG  23098.23288270 -.00003162  00000-0 -24557-4 0  9992,2 55658  70.0021  10.8712 0002936 253.1645 106.9228 15.69910258  8301,6737.291,91.725,361.134,357.178,0.0
55658.0,STARLINK-5307,PAYLOAD,2023-04-09 04:31:37,15.6992442,0.0003493,70.0013,8.1813,266.9592,93.1204,1.4221e-05,1.498e-05,0.0,0 STARLINK-5307,1 55658U 23021AG  23099.18862637  .00001498  00000-0  14221-4 0  9997,2 55658  70.0013   8.1813 0003493 266.9592  93.1204 15.69924420  8459,6737.25,91.724,361.469,356.762,0.0
55658.0,STARLINK-5307,PAYLOAD,2023-04-10 04:59:39,15.69934508,0.0003359,69.9998,5.3151,261.3912,98.6903,6.5058e-06,5.7e-06,0.0,0 STARLINK-5307,1 55658U 23021AG  23100.20809089  .00000570  00000-0  65058-5 0  9990,2 55658  69.9998   5.3151 0003359 261.3912  98.6903 15.69934508  8610,6737.221,91.724,361.349,356.823,0.0
55658.0,STARLINK-5307,PAYLOAD,2023-04-11 00:52:25,15.69929353,0.0003075,70.0003,2.9877,255.9334,104.152,1.8757e-05,2.044e-05,0.0,0 STARLINK-5307,1 55658U 23021AG  23101.03640795  .00002044  00000-0  18757-4 0  9990,2 55658  70.0003   2.9877 0003075 255.9334 104.1520 15.69929353  8744,6737.236,91.724,361.173,357.029,0.0
55658.0,STARLINK-5307,PAYLOAD,2023-04-12 02:52:14,15.69902501,0.0002922,70.0002,359.9418,274.4214,85.6648,-1.9822e-05,-2.593e-05,0.0,0 STARLINK-5307,1 55658U 23021AG  23102.11961643 -.00002593  00000-0 -19822-4 0  9993,2 55658  70.0002 359.9418 0002922 274.4214  85.6648 15.69902501  8911,6737.313,91.725,361.147,357.209,0.0
55658.0,STARLINK-5307,PAYLOAD,2023-04-13 01:48:30,15.69925548,0.0002814,69.9989,357.2547,295.0982,64.9921,3.4795e-06,2.06e-06,0.0,0 STARLINK-5307,1 55658U 23021AG  23103.07535264  .00000206  00000-0  34795-5 0  9999,2 55658  69.9989 357.2547 0002814 295.0982  64.9921 15.69925548  9378,6737.247,91.724,361.008,357.216,0.0
55658.0,STARLINK-5307,PAYLOAD,2023-04-13 20:09:31,15.69895978,0.0003754,69.9982,355.1022,272.5707,87.5059,5.9735e-05,6.968e-05,0.0,0 STARLINK-5307,1 55658U 23021AG  23103.83995225  .00006968  00000-0  59735-4 0  9991,2 55658  69.9982 355.1022 0003754 272.5707  87.5059 15.69895978  9180,6737.332,91.726,361.726,356.667,0.0
55658.0,STARLINK-5307,PAYLOAD,2023-04-14 02:16:33,15.69899815,0.0003285,69.999,354.3872,264.5931,95.489,-4.5002e-06,-7.53e-06,0.0,0 STARLINK-5307,1 55658U 23021AG  23104.09483216 -.00000753  00000-0 -45002-5 0  9993,2 55658  69.9990 354.3872 0003285 264.5931  95.4890 15.69899815  9222,6737.321,91.726,361.399,356.972,0.0
55658.0,STARLINK-5307,PAYLOAD,2023-04-14 12:58:48,15.6991458,0.0003294,69.9978,353.1315,275.9768,84.1052,1.7619e-05,1.905e-05,0.0,0 STARLINK-5307,1 55658U 23021AG  23104.54084003  .00001905  00000-0  17619-4 0  9994,2 55658  69.9978 353.1315 0003294 275.9768  84.1052 15.69914580  9605,6737.278,91.725,361.363,356.924,0.0
55658.0,STARLINK-5307,PAYLOAD,2023-04-14 16:02:18,15.6991925,0.0003394,69.9985,352.7749,259.5632,100.5181,7.1991e-06,6.53e-06,0.0,0 STARLINK-5307,1 55658U 23021AG  23104.66827101  .00000653  00000-0  71991-5 0  9994,2 55658  69.9985 352.7749 0003394 259.5632 100.5181 15.69919250  9311,6737.265,91.724,361.417,356.843,0.0
55658.0,STARLINK-5307,PAYLOAD,2023-04-15 02:44:33,15.69934497,0.0003118,69.9993,351.5207,254.3386,105.7466,1.9912e-05,2.183e-05,0.0,0 STARLINK-5307,1 55658U 23021AG  23105.11427603  .00002183  00000-0  19912-4 0  9992,2 55658  69.9993 351.5207 0003118 254.3386 105.7466 15.69934497  9693,6737.221,91.724,361.187,356.986,0.0
55658.0,STARLINK-5307,PAYLOAD,2023-04-15 22:37:19,15.69946462,0.0003853,69.9981,349.1924,265.4924,94.5832,8.8491e-06,8.52e-06,0.0,0 STARLINK-5307,1 55658U 23021AG  23105.94258906  .00000852  00000-0  88491-5 0  9991,2 55658  69.9981 349.1924 0003853 265.4924  94.5832 15.69946462  9828,6737.187,91.723,361.648,356.456,0.0
55658.0,STARLINK-5307,PAYLOAD,2023-04-16 01:40:51,15.69918689,0.0002916,69.9983,348.8335,261.5627,98.5238,-7.0574e-06,-1.061e-05,0.0,0 STARLINK-5307,1 55658U 23021AG  23106.07004185 -.00001061  00000-0 -70574-5 0  9992,2 55658  69.9983 348.8335 0002916 261.5627  98.5238 15.69918689  9530,6737.267,91.724,361.096,357.167,0.0
55658.0,STARLINK-5307,PAYLOAD,2023-04-16 18:30:07,15.69921664,0.0003317,70.001,346.8638,263.7704,96.3114,5.4675e-06,4.45e-06,0.0,0 STARLINK-5307,1 55658U 23021AG  23106.77092208  .00000445  00000-0  54675-5 0  9999,2 55658  70.0010 346.8638 0003317 263.7704  96.3114 15.69921664  9956,6737.258,91.724,361.358,356.888,0.0
55658.0,STARLINK-5307,PAYLOAD,2023-04-17 02:08:52,15.699256,0.0003247,69.9991,345.967,266.8799,93.2025,5.0864e-06,3.99e-06,0.0,0 STARLINK-5307,1 55658U 23021AG  23107.08950230  .00000399  00000-0  50864-5 0  9996,2 55658  69.9991 345.9670 0003247 266.8799  93.2025 15.69925600  9699,6737.247,91.724,361.299,356.924,0.0
55658.0,STARLINK-5307,PAYLOAD,2023-04-17 18:58:09,15.69926306,0.0003177,70.0001,343.9951,269.2739,90.8092,8.8552e-06,8.52e-06,0.0,0 STARLINK-5307,1 55658U 23021AG  23107.79038747  .00000852  00000-0  88552-5 0  9993,2 55658  70.0001 343.9951 0003177 269.2739  90.8092 15.69926306 10117,6737.245,91.724,361.25,356.969,0.0
